{
    "links": {
        "self": "http://www.neowsapp.com/rest/v1/neo/3785682?api_key=iIulBulltgU6a56xZRHN4H3l9WmuAYTsLGpBGhQ2"
    },
    "id": "3785682",
    "neo_reference_id": "3785682",
    "name": "(2017 TS1)",
    "designation": "2017 TS1",
    "nasa_jpl_url": "http://ssd.jpl.nasa.gov/sbdb.cgi?sstr=3785682",
    "absolute_magnitude_h": 24.7,
    "estimated_diameter": {
        "kilometers": {
            "estimated_diameter_min": 0.0305179233,
            "estimated_diameter_max": 0.0682401509
        },
        "meters": {
            "estimated_diameter_min": 30.5179232594,
            "estimated_diameter_max": 68.2401509401
        },
        "miles": {
            "estimated_diameter_min": 0.0189629525,
            "estimated_diameter_max": 0.0424024508
        },
        "feet": {
            "estimated_diameter_min": 100.1244233463,
            "estimated_diameter_max": 223.8850168104
        }
    },
    "is_potentially_hazardous_asteroid": false,
    "close_approach_data": [
        {
            "close_approach_date": "2008-10-20",
            "close_approach_date_full": "2008-Oct-20 21:11",
            "epoch_date_close_approach": 1224537060000,
            "relative_velocity": {
                "kilometers_per_second": "16.5491911623",
                "kilometers_per_hour": "59577.088184429",
                "miles_per_hour": "37018.8857110415"
            },
            "miss_distance": {
                "astronomical": "0.2040170571",
                "lunar": "79.3626352119",
                "kilometers": "30520517.185828377",
                "miles": "18964569.9804785226"
            },
            "orbiting_body": "Earth"
        },
        {
            "close_approach_date": "2010-08-07",
            "close_approach_date_full": "2010-Aug-07 08:40",
            "epoch_date_close_approach": 1281170400000,
            "relative_velocity": {
                "kilometers_per_second": "9.8394642136",
                "kilometers_per_hour": "35422.071169131",
                "miles_per_hour": "22009.8974995081"
            },
            "miss_distance": {
                "astronomical": "0.0310878969",
                "lunar": "12.0931918941",
                "kilometers": "4650683.159019603",
                "miles": "2889800.5131844014"
            },
            "orbiting_body": "Mars"
        },
        {
            "close_approach_date": "2013-06-27",
            "close_approach_date_full": "2013-Jun-27 06:46",
            "epoch_date_close_approach": 1372315560000,
            "relative_velocity": {
                "kilometers_per_second": "8.7408670548",
                "kilometers_per_hour": "31467.1213971996",
                "miles_per_hour": "19552.4455148322"
            },
            "miss_distance": {
                "astronomical": "0.0688169328",
                "lunar": "26.7697868592",
                "kilometers": "10294866.566813136",
                "miles": "6396933.4548718368"
            },
            "orbiting_body": "Mars"
        },
        {
            "close_approach_date": "2017-10-04",
            "close_approach_date_full": "2017-Oct-04 04:18",
            "epoch_date_close_approach": 1507090680000,
            "relative_velocity": {
                "kilometers_per_second": "10.427978972",
                "kilometers_per_hour": "37540.724299366",
                "miles_per_hour": "23326.3461625699"
            },
            "miss_distance": {
                "astronomical": "0.0190102241",
                "lunar": "7.3949771749",
                "kilometers": "2843889.033582667",
                "miles": "1767110.7034561246"
            },
            "orbiting_body": "Earth"
        },
        {
            "close_approach_date": "2053-06-05",
            "close_approach_date_full": "2053-Jun-05 09:44",
            "epoch_date_close_approach": 2632729440000,
            "relative_velocity": {
                "kilometers_per_second": "18.3751339583",
                "kilometers_per_hour": "66150.4822498642",
                "miles_per_hour": "41103.3371513114"
            },
            "miss_distance": {
                "astronomical": "0.2676702104",
                "lunar": "104.1237118456",
                "kilometers": "40042893.338291848",
                "miles": "24881500.1499215824"
            },
            "orbiting_body": "Earth"
        }
    ],
    "orbital_data": {
        "orbit_id": "12",
        "orbit_determination_date": "2018-02-10 07:09:15",
        "first_observation_date": "2017-10-09",
        "last_observation_date": "2017-10-27",
        "data_arc_in_days": 18,
        "observations_used": 95,
        "orbit_uncertainty": "7",
        "minimum_orbit_intersection": ".0154442",
        "jupiter_tisserand_invariant": "4.047",
        "epoch_osculation": "2459000.5",
        "eccentricity": ".4739266041804812",
        "semi_major_axis": "1.713397877333567",
        "inclination": "1.472765165478387",
        "ascending_node_longitude": "238.4522922742794",
        "orbital_period": "819.1921154695272",
        "perihelion_distance": ".901373039718825",
        "perihelion_argument": "86.05058031100134",
        "aphelion_distance": "2.525422714948309",
        "perihelion_time": "2458814.204774069250",
        "mean_anomaly": "81.86880716818243",
        "mean_motion": ".4394573546324513",
        "equinox": "J2000",
        "orbit_class": {
            "orbit_class_type": "APO",
            "orbit_class_description": "Near-Earth asteroid orbits which cross the Earth’s orbit similar to that of 1862 Apollo",
            "orbit_class_range": "a (semi-major axis) > 1.0 AU; q (perihelion) < 1.017 AU"
        }
    },
    "is_sentry_object": false
}